
NOAA 20 (JPSS-1)
1 43013U 17073A   26175.19094204  .00000023  00000+0  31657-4 0  9999
2 43013  98.7772 114.5913 0000506 130.2018 229.9202 14.19512876445466

NOAA 21 (JPSS-2)
1 54234U 22150A   26175.22358831  .00000033  00000+0  36183-4 0  9991
2 54234  98.7060 113.8947 0002007 139.2826 220.8501 14.19566515187549

NOVASAR 1
1 43619U 18071B   26175.27687789  .00000483  00000+0  47584-4 0  9991
2 43619  97.5071  47.3064 0002321  75.4151 284.7328 14.96254996423995

OCEANSAT-2
1 35931U 09051A   26175.27664777 -.00000221  00000+0 -12533-3 0  9996
2 35931  98.2321 161.4208 0015782 214.7601 145.2535 13.99662291880328

PARS 1
1 59065U 24039Q   26175.30580487  .00009668  00000+0  20061-3 0  9999
2 59065  97.4824 156.4499 0011542  90.7180 269.5392 15.45854898129743

PATHFINDER 1
1 41787U 16059E   26175.22691264  .00000464  00000+0  89287-4 0  9992
2 41787  97.8167 174.1855 0028375 180.8535 179.2627 14.67669669520745

PAZ
1 43215U 18020A   26175.81359387  .00002870  00000+0  13981-3 0  9992
2 43215  97.4451 183.0907 0001749  87.5200 272.6235 15.19144604462169

PLEIADES 1A
1 38012U 11076F   26175.33168124  .00000192  00000+0  51060-4 0  9995
2 38012  98.1972 250.3389 0001750  92.3806 344.2670 14.58534686773039

PLEIADES 1B
1 39019U 12068A   26175.28268119  .00000177  00000+0  47813-4 0  9998
2 39019  98.1942 250.2368 0001679  89.2865 270.8526 14.58564050721888

PLEIADES NEO 3
1 48268U 21034A   26175.61418499  .00000839  00000+0  11325-3 0  9995
2 48268  97.8935 250.2743 0001333  98.3393 261.7971 14.81673112278755
